{"type": "FeatureCollection", "features": [ {"type": "Feature", "properties": {"norad_id": 31674, "name": "FENGYUN 1C DEB", "group": "fengyun-1c-debris", "lat": 0.45952213575229084, "lon": -147.84823899311797, "alt_km": 718.6423737706791, "timestamp": "2025-12-21T05:44:51.869363+00:00", "meta": {"OBJECT_NAME": "FENGYUN 1C DEB", "OBJECT_ID": "1999-025CCG", "EPOCH": "2025-12-17T21:32:12.264288", "MEAN_MOTION": 14.51972431, "ECCENTRICITY": 0.00249893, "INCLINATION": 98.9275, "RA_OF_ASC_NODE": 28.5294, "ARG_OF_PERICENTER": 268.9263, "MEAN_ANOMALY": 90.9067, "EPHEMERIS_TYPE": 0, "CLASSIFICATION_TYPE": "U", "NORAD_CAT_ID": 31674, "ELEMENT_SET_NO": 999, "REV_AT_EPOCH": 64689, "BSTAR": 0.0019267574, "MEAN_MOTION_DOT": 7.767e-05, "MEAN_MOTION_DDOT": 0}, "tle": {"line1": "1 31674U 99025CCG 25351.89736417  .00007767  00000+0  19268-2 0  9991", "line2": "2 31674  98.9275  28.5294 0024989 268.9263  90.9067 14.51972431646892"}}, "geometry": {"type": "Point", "coordinates": [-147.84823899311797, 0.45952213575229084]}}, {"type": "Feature", "properties": {"norad_id": 31678, "name": "FENGYUN 1C DEB", "group": "fengyun-1c-debris", "lat": 2.4978927369636255, "lon": -74.76313050278104, "alt_km": 900.4811112908073, "timestamp": "2025-12-21T05:44:51.869373+00:00", "meta": {"OBJECT_NAME": "FENGYUN 1C DEB", "OBJECT_ID": "1999-025CCL", "EPOCH": "2025-12-17T13:21:34.128864", "MEAN_MOTION": 14.53232877, "ECCENTRICITY": 0.02587183, "INCLINATION": 98.7998, "RA_OF_ASC_NODE": 100.9803, "ARG_OF_PERICENTER": 13.2727, "MEAN_ANOMALY": 347.5106, "EPHEMERIS_TYPE": 0, "CLASSIFICATION_TYPE": "U", "NORAD_CAT_ID": 31678, "ELEMENT_SET_NO": 999, "REV_AT_EPOCH": 96909, "BSTAR": 0.00061595616, "MEAN_MOTION_DOT": 3.92e-05, "MEAN_MOTION_DDOT": 0}, "tle": {"line1": "1 31678U 99025CCL 25351.55664501  .00003920  00000+0  61596-3 0  9991", "line2": "2 31678  98.7998 100.9803 0258718  13.2727 347.5106 14.53232877969092"}}, "geometry": {"type": "Point", "coordinates": [-74.76313050278104, 2.4978927369636255]}}, {"type": "Feature", "properties": {"norad_id": 31680, "name": "FENGYUN 1C DEB", "group": "fengyun-1c-debris", "lat": 45.33162071663821, "lon": -64.49159899015295, "alt_km": 519.8525769473681, "timestamp": "2025-12-21T05:44:51.869383+00:00", "meta": {"OBJECT_NAME": "FENGYUN 1C DEB", "OBJECT_ID": "1999-025CCN", "EPOCH": "2025-12-19T13:46:38.260416", "MEAN_MOTION": 15.24517341, "ECCENTRICITY": 0.0075074, "INCLINATION": 99.8378, "RA_OF_ASC_NODE": 103.2151, "ARG_OF_PERICENTER": 267.596, "MEAN_ANOMALY": 91.6672, "EPHEMERIS_TYPE": 0, "CLASSIFICATION_TYPE": "U", "NORAD_CAT_ID": 31680, "ELEMENT_SET_NO": 999, "REV_AT_EPOCH": 276, "BSTAR": 0.00092506, "MEAN_MOTION_DOT": 0.00024601, "MEAN_MOTION_DDOT": 0}, "tle": {"line1": "1 31680U 99025CCN 25353.57405394  .00024601  00000+0  92506-3 0  9995", "line2": "2 31680  99.8378 103.2151 0075074 267.5960  91.6672 15.24517341  2764"}}, "geometry": {"type": "Point", "coordinates": [-64.49159899015295, 45.33162071663821]}}, {"type": "Feature", "properties": {"norad_id": 31685, "name": "FENGYUN 1C DEB", "group": "fengyun-1c-debris", "lat": 38.48723636227785, "lon": 12.186285131332708, "alt_km": 868.7840000368287, "timestamp": "2025-12-21T05:44:51.869393+00:00", "meta": {"OBJECT_NAME": "FENGYUN 1C DEB", "OBJECT_ID": "1999-025CCT", "EPOCH": "2025-12-20T21:02:42.706752", "MEAN_MOTION": 14.09660965, "ECCENTRICITY": 0.00162617, "INCLINATION": 98.7301, "RA_OF_ASC_NODE": 18.8519, "ARG_OF_PERICENTER": 201.9691, "MEAN_ANOMALY": 158.0784, "EPHEMERIS_TYPE": 0, "CLASSIFICATION_TYPE": "U", "NORAD_CAT_ID": 31685, "ELEMENT_SET_NO": 999, "REV_AT_EPOCH": 95204, "BSTAR": 7.9318575e-05, "MEAN_MOTION_DOT": 9.7e-07, "MEAN_MOTION_DDOT": 0}, "tle": {"line1": "1 31685U 99025CCT 25354.87688318  .00000097  00000+0  79319-4 0  9994", "line2": "2 31685  98.7301  18.8519 0016261 201.9691 158.0784 14.09660965952048"}}, "geometry": {"type": "Point", "coordinates": [12.186285131332708, 38.48723636227785]}}, {"type": "Feature", "properties": {"norad_id": 31686, "name": "FENGYUN 1C DEB", "group": "fengyun-1c-debris", "lat": -80.48971398065608, "lon": 125.69614464324754, "alt_km": 827.6387654502378, "timestamp": "2025-12-21T05:44:51.869403+00:00", "meta": {"OBJECT_NAME": "FENGYUN 1C DEB", "OBJECT_ID": "1999-025CCU", "EPOCH": "2025-12-18T16:09:17.193024", "MEAN_MOTION": 14.72198075, "ECCENTRICITY": 0.02831847, "INCLINATION": 98.1524, "RA_OF_ASC_NODE": 64.2841, "ARG_OF_PERICENTER": 70.6313, "MEAN_ANOMALY": 292.5274, "EPHEMERIS_TYPE": 0, "CLASSIFICATION_TYPE": "U", "NORAD_CAT_ID": 31686, "ELEMENT_SET_NO": 999, "REV_AT_EPOCH": 97906, "BSTAR": 0.00055149274, "MEAN_MOTION_DOT": 6.531e-05, "MEAN_MOTION_DDOT": 0}, "tle": {"line1": "1 31686U 99025CCU 25352.67311566  .00006531  00000+0  55149-3 0  9992", "line2": "2 31686  98.1524  64.2841 0283184  70.6313 292.5274 14.72198075979062"}}, "geometry": {"type": "Point", "coordinates": [125.69614464324754, -80.48971398065608]}}, {"type": "Feature", "properties": {"norad_id": 31688, "name": "FENGYUN 1C DEB", "group": "fengyun-1c-debris", "lat": -58.29908263137599, "lon": 63.9794751440354, "alt_km": 947.7633323288164, "timestamp": "2025-12-21T05:44:51.869413+00:00", "meta": {"OBJECT_NAME": "FENGYUN 1C DEB", "OBJECT_ID": "1999-025CCW", "EPOCH": "2025-12-20T21:28:20.287200", "MEAN_MOTION": 14.0231552, "ECCENTRICITY": 0.00756665, "INCLINATION": 98.9627, "RA_OF_ASC_NODE": 48.8362, "ARG_OF_PERICENTER": 118.9467, "MEAN_ANOMALY": 241.9314, "EPHEMERIS_TYPE": 0, "CLASSIFICATION_TYPE": "U", "NORAD_CAT_ID": 31688, "ELEMENT_SET_NO": 999, "REV_AT_EPOCH": 95392, "BSTAR": 3.318761e-06, "MEAN_MOTION_DOT": -3.8e-07, "MEAN_MOTION_DDOT": 0}, "tle": {"line1": "1 31688U 99025CCW 25354.89467925 -.00000038  00000+0  33188-5 0  9999", "line2": "2 31688  98.9627  48.8362 0075666 118.9467 241.9314 14.02315520953921"}}, "geometry": {"type": "Point", "coordinates": [63.9794751440354, -58.29908263137599]}}, {"type": "Feature", "properties": {"norad_id": 31691, "name": "FENGYUN 1C DEB", "group": "fengyun-1c-debris", "lat": 43.33414696521343, "lon": -89.72762430438763, "alt_km": 792.0658169139497, "timestamp": "2025-12-21T05:44:51.869423+00:00", "meta": {"OBJECT_NAME": "FENGYUN 1C DEB", "OBJECT_ID": "1999-025CCZ", "EPOCH": "2025-12-17T11:52:08.430528", "MEAN_MOTION": 14.26190936, "ECCENTRICITY": 0.00616801, "INCLINATION": 98.8819, "RA_OF_ASC_NODE": 77.9922, "ARG_OF_PERICENTER": 225.8341, "MEAN_ANOMALY": 133.776, "EPHEMERIS_TYPE": 0, "CLASSIFICATION_TYPE": "U", "NORAD_CAT_ID": 31691, "ELEMENT_SET_NO": 999, "REV_AT_EPOCH": 64179, "BSTAR": 0.001756178, "MEAN_MOTION_DOT": 4.247e-05, "MEAN_MOTION_DDOT": 0}, "tle": {"line1": "1 31691U 99025CCZ 25351.49454202  .00004247  00000+0  17562-2 0  9990", "line2": "2 31691  98.8819  77.9922 0061680 225.8341 133.7760 14.26190936641792"}}, "geometry": {"type": "Point", "coordinates": [-89.72762430438763, 43.33414696521343]}}, {"type": "Feature", "properties": {"norad_id": 31692, "name": "FENGYUN 1C DEB", "group": "fengyun-1c-debris", "lat": -3.676579603058657, "lon": 171.41656760769914, "alt_km": 870.96198643753, "timestamp": "2025-12-21T05:44:51.869433+00:00", "meta": {"OBJECT_NAME": "FENGYUN 1C DEB", "OBJECT_ID": "1999-025CDA", "EPOCH": "2025-12-18T22:43:06.035232", "MEAN_MOTION": 14.18414405, "ECCENTRICITY": 0.00880976, "INCLINATION": 99.1757, "RA_OF_ASC_NODE": 349.6414, "ARG_OF_PERICENTER": 64.1143, "MEAN_ANOMALY": 296.9081, "EPHEMERIS_TYPE": 0, "CLASSIFICATION_TYPE": "U", "NORAD_CAT_ID": 31692, "ELEMENT_SET_NO": 999, "REV_AT_EPOCH": 58297, "BSTAR": 0.002131478, "MEAN_MOTION_DOT": 4.527e-05, "MEAN_MOTION_DDOT": 0}, "tle": {"line1": "1 31692U 99025CDA 25352.94659763  .00004527  00000+0  21315-2 0  9993", "line2": "2 31692  99.1757 349.6414 0088097  64.1143 296.9081 14.18414405582971"}}, "geometry": {"type": "Point", "coordinates": [171.41656760769914, -3.676579603058657]}}, {"type": "Feature", "properties": {"norad_id": 31695, "name": "FENGYUN 1C DEB", "group": "fengyun-1c-debris", "lat": -25.814150214963647, "lon": -104.31151430584518, "alt_km": 531.848937502974, "timestamp": "2025-12-21T05:44:51.869443+00:00", "meta": {"OBJECT_NAME": "FENGYUN 1C DEB", "OBJECT_ID": "1999-025CDD", "EPOCH": "2025-12-20T12:31:09.702912", "MEAN_MOTION": 14.73845928, "ECCENTRICITY": 0.01749697, "INCLINATION": 98.2649, "RA_OF_ASC_NODE": 78.9886, "ARG_OF_PERICENTER": 203.7711, "MEAN_ANOMALY": 155.5345, "EPHEMERIS_TYPE": 0, "CLASSIFICATION_TYPE": "U", "NORAD_CAT_ID": 31695, "ELEMENT_SET_NO": 999, "REV_AT_EPOCH": 66086, "BSTAR": 0.0012316414, "MEAN_MOTION_DOT": 0.00010264, "MEAN_MOTION_DDOT": 0}, "tle": {"line1": "1 31695U 99025CDD 25354.52164008  .00010264  00000+0  12316-2 0  9991", "line2": "2 31695  98.2649  78.9886 0174969 203.7711 155.5345 14.73845928660862"}}, "geometry": {"type": "Point", "coordinates": [-104.31151430584518, -25.814150214963647]}}, {"type": "Feature", "properties": {"norad_id": 31714, "name": "FENGYUN 1C DEB", "group": "fengyun-1c-debris", "lat": 23.253399343956804, "lon": -107.32043334565208, "alt_km": 604.8625532134847, "timestamp": "2025-12-21T05:44:51.869453+00:00", "meta": {"OBJECT_NAME": "FENGYUN 1C DEB", "OBJECT_ID": "1999-025CDM", "EPOCH": "2025-12-20T07:37:36.052032", "MEAN_MOTION": 14.88778002, "ECCENTRICITY": 0.00168865, "INCLINATION": 99.0321, "RA_OF_ASC_NODE": 255.5489, "ARG_OF_PERICENTER": 277.819, "MEAN_ANOMALY": 208.4855, "EPHEMERIS_TYPE": 0, "CLASSIFICATION_TYPE": "U", "NORAD_CAT_ID": 31714, "ELEMENT_SET_NO": 999, "REV_AT_EPOCH": 96162, "BSTAR": 0.0040437912, "MEAN_MOTION_DOT": 0.0003806, "MEAN_MOTION_DDOT": 0}, "tle": {"line1": "1 31714U 99025CDM 25354.31777838  .00038060  00000+0  40438-2 0  9991", "line2": "2 31714  99.0321 255.5489 0016886 277.8190 208.4855 14.88778002961624"}}, "geometry": {"type": "Point", "coordinates": [-107.32043334565208, 23.253399343956804]}}]}